STARLINK-31963          
1 59893U 24100J   24277.52988204 -.00001642  00000+0 -32064-4 0  9994
2 59893  43.0016 214.6767 0001066 283.4325  76.6412 15.40694599 21059
STARLINK-31961          
1 59894U 24100K   24277.55675996  .00001901  00000+0  52774-4 0  9995
2 59894  43.0029 214.8833 0001475 263.5090  96.5598 15.40697545 21063
STARLINK-31964          
1 59895U 24100L   24277.55451718  .00001825  00000+0  50971-4 0  9992
2 59895  43.0047 214.8626 0001971 251.9408 108.1234 15.40687649 21004
STARLINK-31905          
1 59896U 24100M   24277.24381299  .00004717  00000+0  12007-3 0  9995
2 59896  43.0037 216.8371 0001170 271.3042  88.7680 15.40711843 21017
STARLINK-31928          
1 59897U 24100N   24277.52090471  .00009163  00000+0  22626-3 0  9994
2 59897  43.0016 214.6112 0001931 267.8367  92.2268 15.40713568 20959
STARLINK-31953          
1 59898U 24100P   24277.11863738  .00001026  00000+0  31840-4 0  9993
2 59898  43.0022 217.6161 0001681 259.8555 100.2112 15.40696366 20994
STARLINK-31942          
1 59899U 24100Q   24277.54779717 -.00004308  00000+0 -95951-4 0  9995
2 59899  43.0046 214.8173 0002054 274.1526  85.9095 15.40687873 21056
STARLINK-31676          
1 59900U 24100R   24277.53212471 -.00001450  00000+0 -27457-4 0  9997
2 59900  43.0014 214.6932 0001285 263.9386  96.1324 15.40693001 20957
STARLINK-31908          
1 59901U 24100S   24277.23933829  .00000809  00000+0  26638-4 0  9997
2 59901  43.0046 216.8018 0001168 264.9469  95.1254 15.40698168 21002
STARLINK-31914          
1 59902U 24100T   24277.52539815 -.00001289  00000+0 -23569-4 0  9992
2 59902  43.0042 214.6392 0002574 268.2717  91.7845 15.40697269 20957
STARLINK-31850          
1 59903U 24100U   24277.55228865 -.00003419  00000+0 -74628-4 0  9995
2 59903  43.0036 214.8490 0000524 304.3881  55.6926 15.40700720 21002
STARLINK-31924          
1 59904U 24100V   24277.80262088 -.00000444  00000+0 -33341-5 0  9992
2 59904  43.0035 213.2813 0003006 258.8425 101.2093 15.40698132 20992
STARLINK-31898          
1 59905U 24100W   24277.12087902 -.00007309  00000+0 -16791-3 0  9993
2 59905  43.0017 217.6325 0001932 272.1027  87.9608 15.40689248 20981
STARLINK-31861          
1 59906U 24100X   24277.55900009  .00000392  00000+0  16651-4 0  9992
2 59906  43.0003 214.8994 0001563 274.3313  85.7365 15.40702956 20955
STARLINK-31920          
1 59907U 24100Y   24277.81786255  .00129928  00000+0  25458-2 0  9997
2 59907  43.0006 211.6533 0002787 222.6679 137.3963 15.46193791 21016
STARLINK-31872          
1 59922U 24106A   24277.73663763  .00002197  00000+0  59844-4 0  9995
2 59922  43.0021  58.6872 0000749 226.3065 133.7729 15.40698628 20495
STARLINK-31972          
1 59923U 24106B   24277.69456238 -.00004898  00000+0 -11012-3 0  9994
2 59923  43.0019  59.2366 0000779 273.6327  86.4441 15.40690083 20534
STARLINK-31958          
1 59924U 24106C   24277.39506178  .00007680  00000+0  19090-3 0  9995
2 59924  43.0036  61.2948 0001382 285.4134  74.6570 15.40706033 20435
STARLINK-31959          
1 59925U 24106D   24277.91667824  .00095202  00000+0  22613-2 0  9991
2 59925  43.0007  57.1436 0001741 270.2485 221.1083 15.40655216 20524
STARLINK-31957          
1 59926U 24106E   24277.45764344  .00003109  00000+0  81637-4 0  9994
2 59926  43.0128  60.9159 0003410 300.1005  59.9513 15.40719165 20472
STARLINK-31968          
1 59927U 24106F   24277.45316271  .00003115  00000+0  81775-4 0  9997
2 59927  43.0062  60.8725 0002005 267.6005  92.4622 15.40716980 20491
STARLINK-31970          
1 59928U 24106G   24277.69680618 -.00002431  00000+0 -50964-4 0  9991
2 59928  43.0041  59.2529 0001745 275.1595  84.9062 15.40688731 20521
STARLINK-31932          
1 59929U 24106H   24277.44106152 -.00065703  00000+0 -15820-2 0  9992
2 59929  42.9975  57.2100 0002429 318.5669  41.5003 15.40642634 20473
STARLINK-31956          
1 59930U 24106J   24277.83093677  .00003409  00000+0  88818-4 0  9996
2 59930  43.0056  58.5377 0001976 263.0488  97.0144 15.40707658 20498
STARLINK-31960          
1 59931U 24106K   24277.45093394 -.00002893  00000+0 -62023-4 0  9999
2 59931  42.9992  60.8465 0001426 261.3041  98.7654 15.40696045 20431
STARLINK-31432          
1 59932U 24106L   24277.68112084 -.00081285  00000+0 -19632-2 0  9991
2 59932  42.9986  59.1413 0005392 277.2008  82.8235 15.40623253 20467
STARLINK-31853          
1 59933U 24106M   24277.69904425  .00007042  00000+0  17573-3 0  9991
2 59933  43.0005  59.2693 0001500 293.1343  66.9355 15.40692443 20462
STARLINK-31971          
1 59934U 24106N   24277.81645719 -.00002534  00000+0 -53462-4 0  9995
2 59934  43.0052  53.9521 0000654 290.2661  69.8125 15.40675321 20380
STARLINK-31962          
1 59936U 24106Q   24277.74111564 -.00002789  00000+0 -59546-4 0  9996
2 59936  43.0017  58.7189 0001193 266.8592  93.2128 15.40688954 20488
STARLINK-31879          
1 59937U 24106R   24277.40352330  .00002336  00000+0  63154-4 0  9994
2 59937  43.0061  60.4872 0001059 247.6107 112.4638 15.40707493 20487
STARLINK-31876          
1 59938U 24106S   24277.70353658 -.00002242  00000+0 -46442-4 0  9991
2 59938  43.0033  59.3026 0002659 297.1041  62.9544 15.40671621 19340
STARLINK-31955          
1 59939U 24106T   24277.70576687 -.00088798  00000+0 -21464-2 0  9996
2 59939  43.0056  59.3240 0004778 284.3587  75.6739 15.40641643 20521
STARLINK-31946          
1 59940U 24106U   24277.73215580 -.00000704  00000+0 -95976-5 0  9996
2 59940  43.0021  58.6471 0001470 257.4705 102.5988 15.40696589 20527
STARLINK-31948          
1 59941U 24106V   24277.45449509  .00000190  00000+0  11840-4 0  9990
2 59941  43.0040  57.3102 0002980 288.5334  71.5199 15.40690291 20473
STARLINK-31900          
1 59942U 24106W   24277.45541858 -.00001195  00000+0 -21335-4 0  9999
2 59942  43.0043  60.8856 0001853 266.0101  94.0544 15.40693695 20434
STARLINK-31973          
1 59943U 24106X   24277.42852098 -.00001584  00000+0 -30626-4 0  9993
2 59943  43.0067  60.6762 0002349 282.2409  77.8184 15.40707478 20431
STARLINK-31966          
1 59944U 24106Y   24277.43076625 -.00002403  00000+0 -50241-4 0  9995
2 59944  43.0036  60.6935 0003090 293.3685  66.6847 15.40705136 20489
STARLINK-11145 [DTC]    
1 59945U 24107A   24277.48606630 -.00008129  00000+0 -62393-4 0  9999
2 59945  53.1568 305.8558 0001542  95.8993 264.2201 15.69672853 20125
STARLINK-11121 [DTC]    
1 59946U 24107B   24277.79948863  .00000181  00000+0  63513-5 0  9995
2 59946  53.1588 304.2524 0001283  91.2750 268.8415 15.69711637 20241
STARLINK-11113 [DTC]    
1 59947U 24107C   24277.80918132 -.00007103  00000+0 -53775-4 0  9995
2 59947  53.1572 303.5762 0001251  64.1144 296.0002 15.69726425 20181
STARLINK-11123 [DTC]    
1 59948U 24107D   24277.79458121  .00000142  00000+0  60320-5 0  9990
2 59948  53.1575 304.2208 0001316 101.1123 259.0043 15.69713668 20245
STARLINK-11138 [DTC]    
1 59949U 24107E   24277.80992854  .00001470  00000+0  18123-4 0  9997
2 59949  53.1573 303.5865 0001375 103.4020 256.7151 15.67974390 20244
STARLINK-11130 [DTC]    
1 59950U 24107F   24277.47133088 -.00000604  00000+0 -11105-6 0  9993
2 59950  53.1560 305.7612 0002290  40.9254 319.1935 15.69719832 20139
STARLINK-11126 [DTC]    
1 59951U 24107G   24277.91667824 -.00211231  26265-4 -49798-3 0  9995
2 59951  53.1442 299.3918 0000693  84.8684 140.5300 15.95837477 20299
STARLINK-11124 [DTC]    
1 59952U 24107H   24277.58886558 -.00003531  00000+0 -24311-4 0  9997
2 59952  53.1568 305.0643 0001142 114.6576 245.4561 15.69696545 20217
STARLINK-11143 [DTC]    
1 59953U 24107J   24277.38806124 -.00008723  00000+0 -67326-4 0  9998
2 59953  53.1570 305.9430 0001697  61.7645 298.3544 15.69667093 20122
STARLINK-11133 [DTC]    
1 59954U 24107K   24277.38313348 -.00001123  00000+0 -44131-5 0  9997
2 59954  53.1574 305.9107 0001092  72.3196 287.7941 15.69717581 20116
STARLINK-11144 [DTC]    
1 59955U 24107L   24277.37822487 -.00001484  00000+0 -73845-5 0  9990
2 59955  53.1568 305.8789 0001316  78.4814 281.6352 15.69717784 20178
STARLINK-11134 [DTC]    
1 59956U 24107M   24277.37333460 -.00000813  00000+0 -18540-5 0  9995
2 59956  53.1561 305.8470 0000959  93.0597 267.0531 15.69691775 19796
STARLINK-11142 [DTC]    
1 59957U 24107N   24277.36840681  .00007137  00000+0  63657-4 0  9995
2 59957  53.1559 305.8134 0001156  64.2828 295.8309 15.69733839 20127
STARLINK-31995          
1 59958U 24107P   24277.86680456 -.00000420  00000+0 -20609-5 0  9994
2 59958  53.1606 329.3055 0001426  99.0503 261.0659 15.30196753 19790
STARLINK-31989          
1 59959U 24107Q   24277.91667824 -.00102559  00000+0 -34926-2 0  9995
2 59959  53.1587 329.0097 0001427  87.9985 221.8925 15.30252276 19921
STARLINK-31856          
1 59960U 24107R   24277.86361412  .00003685  00000+0  13643-3 0  9997
2 59960  53.1596 329.2881 0001259  95.7787 264.3358 15.30213504 19907
STARLINK-31993          
1 59961U 24107S   24277.41592995  .00001370  00000+0  58368-4 0  9994
2 59961  53.1604 331.4620 0001509 103.1969 256.9200 15.30196280 19777
STARLINK-31980          
1 59962U 24107T   24277.88051752  .00000996  00000+0  45753-4 0  9994
2 59962  53.1600 329.3898 0001238  89.0969 271.0174 15.30200627 19913
STARLINK-31991          
1 59963U 24107U   24277.47808418  .00002752  00000+0  10503-3 0  9995
2 59963  53.1613 331.1382 0001460 104.7644 255.3519 15.30188812 19840
STARLINK-31979          
1 59964U 24107V   24277.87735524  .00009607  00000+0  33601-3 0  9997
2 59964  53.1608 329.3703 0001440  67.9916 292.1238 15.30206032 19797
STARLINK-31978          
1 60016U 24111A   24277.52636199  .00001490  00000+0  55552-4 0  9994
2 60016  53.1602 342.7528 0001140  85.9905 274.1228 15.34204101 18966
STARLINK-31987          
1 60017U 24111B   24277.50772292  .00012915  00000+0  39565-3 0  9997
2 60017  53.1611 342.6369 0001752 108.5600 251.5593 15.34163474 19021
